VSP RF A1               
1 59135U 24043AP  26066.03073316  .00000577  00000+0  25199-4 0  9997
2 59135  97.5247 201.5379 0009431 234.6315 125.4042 15.26179596111403
STARLINK-32393          
1 61862U 24202T   26068.47224197  .00000327  00000+0  21414-4 0  9998
2 61862  43.0016 239.2823 0001732 279.9745  80.0911 15.27579329 75308
